format  = 'OEF2.0'       ! file format
rectype = 'ML'           ! record type (1L/ML)
refsys  = ECLM J2000     ! default reference system
END_OF_HEADER
2001VB
! Keplerian elements: a, e, i, long. node, arg. peric., mean anomaly
 KEP   2.3972295091341818E+00  9.0045561253010820E-01   9.5312576927723 306.0842103363536 224.3449434743756  3.5000728511724679E+02
 MJD     52220.480779121 TDT
 MAG  18.496  0.150
! Non-gravitational parameters: model used, number of model parameters, dimension
 LSP   0  0    6
! PERIHELION   2.3863074311151147E-01
! APHELION   4.5558282751568511E+00
! ANODE   2.5954280650136335E-01
! DNODE  -7.0897305707778302E-01
! MOID   2.2573011858864109E-02
! PERIOD   1.3556976695510382E+03
! PHA T
! VINFTY    33.3613259694715
! U_PAR 9.0
! ORB_TYPE Apollo
! RMS    1.44914E-01   7.81223E-03   1.08365E-01   1.13851E+00   9.97345E-01   1.00749E+00
 COV   2.100015874288539E-02  1.132103928207533E-03  1.570367291212824E-02
 COV   1.649825025473299E-01 -1.445253813170477E-01  1.459990356365886E-01
 COV   6.103093644695932E-05  8.465739374806434E-04  8.894099070933269E-03
 COV  -7.791269120707874E-03  7.870706352802421E-03  1.174305841879834E-02
 COV   1.233705182825771E-01 -1.080729800542303E-01  1.091763668144427E-01
 COV   1.296207495968206E+00 -1.135488233723122E+00  1.147005134205137E+00
 COV   9.946973739928532E-01 -1.004781431331693E+00  1.015026538186732E+00
 COR   1.000000000000000E+00  9.999999807475485E-01  9.999984834291890E-01
 COR   9.999754404660838E-01 -9.999708712873314E-01  9.999999994523074E-01
 COR   1.000000000000000E+00  9.999983113817169E-01  9.999762411285720E-01
 COR  -9.999716858368278E-01  9.999999866661825E-01  1.000000000000000E+00
 COR   9.999620407585132E-01 -9.999563224593564E-01  9.999984536375306E-01
 COR   1.000000000000000E+00 -9.999997427098962E-01  9.999755905498247E-01
 COR   9.999999999999998E-01 -9.999710253551686E-01  1.000000000000000E+00
